ONEWEB-0628             
1 55169U 23004AF  24322.66988768 -.00000337  00000+0 -97267-3 0  9994
2 55169  87.8862 105.4438 0002006 118.9195 241.2135 13.12444278 92414
ONEWEB-0629             
1 55170U 23004AG  24322.75797045  .00000063  00000+0  13032-3 0  9994
2 55170  87.9073 120.6978 0001975  98.2072 261.9283 13.17652020 91678
ONEWEB-0631             
1 55171U 23004AH  24322.59137997  .00000129  00000+0  29528-3 0  9991
2 55171  87.9103  90.1558 0001045 110.6168 249.5076 13.18687876 93684
ONEWEB-0709             
1 55172U 23004AJ  24322.78224625  .00000544  00000+0  14998-2 0  9993
2 55172  87.8881 135.9438 0000821  52.2451 307.8751 13.11417737 90325
ONEWEB-0710             
1 55173U 23004AK  24322.77231988  .00000010  00000+0 -84366-5 0  9991
2 55173  87.9075 120.7184 0001581  98.7616 261.3695 13.17647395 91675
ONEWEB-0711             
1 55174U 23004AL  24322.52451144 -.00000533  00000+0 -15384-2 0  9995
2 55174  87.8881 135.9639 0001739 121.0351 239.0948 13.11418895 90255
ONEWEB-0713             
1 55175U 23004AM  24322.77206557 -.00000032  00000+0 -12548-3 0  9993
2 55175  87.8882 135.9224 0001546 102.0002 258.1299 13.11418044 90274
ONEWEB-0715             
1 55176U 23004AN  24322.76697175 -.00000003  00000+0 -44351-4 0  9999
2 55176  87.8882 135.9235 0001116  90.4491 269.6765 13.11420376 90313
